Name,Type,State,Lat,Long,latitude,longitude
Mt. Waterman,Cross-Country,CALIFORNIA,34.34613,-117.93367,34.34613,-117.93367
Als Run,Cross-Country,NEW MEXICO,36.59449,-105.45278,36.59449,-105.45278
High Noon,Cross-Country,NEW MEXICO,36.59449,-105.45278,36.59449,-105.45278
Psycho Path,Cross-Country,NEW MEXICO,36.59449,-105.45278,36.59449,-105.45278
Snakedance,Cross-Country,NEW MEXICO,36.59449,-105.45278,36.59449,-105.45278
Totemoff,Cross-Country,NEW MEXICO,36.59449,-105.45278,36.59449,-105.45278
Whitefeather,Cross-Country,NEW MEXICO,36.59449,-105.45278,36.59449,-105.45278
Norway Mt.,Cross-Country,MICHIGAN,45.78694,-87.90361,45.78694,-87.90361
Montana Snow Bowl,Cross-Country,MONTANA,47.02361,-113.99639,47.02361,-113.99639
Big Mt.,Cross-Country,MONTANA,48.485,-114.35278,48.485,-114.35278
Cloudmont-Mentone Ski Area,Both,ALABAMA,34.54,-85.60333,34.54,-85.60333
Cococino XC Ski Trail,Alpine,ARIZONA,35.36667,-111.96611,35.36667,-111.96611
Snowbowl Ski Area,Both,ARIZONA,35.32782,-111.69517,35.32782,-111.69517
Sunrise Peak Ski Area,Both,ARIZONA,33.97341,-109.56344,33.97341,-109.56344
Williams Ski Area,Both,ARIZONA,35.2106,-112.19241,35.2106,-112.19241
Alpine Meadows Ski Area,Both,CALIFORNIA,39.1574,-120.23907,39.1574,-120.23907
Badger Pass Ski Area,Both,CALIFORNIA,37.66243,-119.6643,37.66243,-119.6643
Bear River Resort Ski Area,Both,CALIFORNIA,38.56102,-120.26461,38.56102,-120.26461
Bear Valley Ski Area,Both,CALIFORNIA,38.49213,-120.0446,38.49213,-120.0446
Big Meadows Nordic Ski Trail,Alpine,CALIFORNIA,36.69889,-118.84861,36.69889,-118.84861
Blue Ridge Ski Lift,Both,CALIFORNIA,34.36917,-117.69194,34.36917,-117.69194
Boreal Ridge Ski Area,Both,CALIFORNIA,39.33157,-120.35101,39.33157,-120.35101
Camp Richardson Cross Country Ski Ar,Alpine,CALIFORNIA,38.92908,-120.0385,38.92908,-120.0385
Cedar Pass Ski Area,Both,CALIFORNIA,41.55598,-120.26104,41.55598,-120.26104
Chinese Peak Ski Area,Both,CALIFORNIA,37.22716,-119.15651,37.22716,-119.15651
Cidar Pass Ski Course,Both,CALIFORNIA,41.555,-120.26361,41.555,-120.26361
Coppervale Ski Tow,Both,CALIFORNIA,40.34528,-120.90278,40.34528,-120.90278
Deer Park Ski Area,Both,CALIFORNIA,39.18657,-120.19907,39.18657,-120.19907
Dodge Ridge Ski Area,Both,CALIFORNIA,38.18631,-119.95016,38.18631,-119.95016
Donner Summit Ski Area,Both,CALIFORNIA,39.32351,-120.3299,39.32351,-120.3299
Eagles Peak Ski Area,Both,CALIFORNIA,39.9735,-120.12046,39.9735,-120.12046
Gold Mine Ski Area,Both,CALIFORNIA,34.22642,-116.86447,34.22642,-116.86447
Granlibakken Ski Area,Both,CALIFORNIA,39.1549,-120.15628,39.1549,-120.15628
Green Valley Ski Area,Both,CALIFORNIA,34.23611,-117.07222,34.23611,-117.07222
Holiday Hill Ski Lift,Alpine,CALIFORNIA,34.36472,-117.67833,34.36472,-117.67833
Homewood Ski Area,Both,CALIFORNIA,39.0799,-120.16739,39.0799,-120.16739
June Mountain Ski Area,Both,CALIFORNIA,37.75133,-119.07263,37.75133,-119.07263
Kirkwood Ski Area,Both,CALIFORNIA,38.67824,-120.04294,38.67824,-120.04294
Kratka Ridge Ski Area,Both,CALIFORNIA,34.35113,-117.89811,34.35113,-117.89811
Mount High East Ski Area,Both,CALIFORNIA,34.36919,-117.67977,34.36919,-117.67977
Mount High East Ski Area,Alpine,CALIFORNIA,34.36696,-117.43059,34.36696,-117.43059
Mount High West Ski Area,Both,CALIFORNIA,34.37169,-117.69199,34.37169,-117.69199
Mount High West Ski Area,Alpine,CALIFORNIA,34.35474,-117.7406,34.35474,-117.7406
Mount Reba Ski Area,Both,CALIFORNIA,38.49547,-120.04905,38.49547,-120.04905
Mount Shasta Ski Park Resort,Both,CALIFORNIA,41.32222,-122.20194,41.32222,-122.20194
Mount Waterman Ski Area,Alpine,CALIFORNIA,34.34613,-117.93367,34.34613,-117.93367
North Star Ski Area,Both,CALIFORNIA,39.25573,-120.12268,39.25573,-120.12268
Northstar-at-Tahoe Ski Area,Alpine,CALIFORNIA,39.27323,-120.1024,39.27323,-120.1024
Powder Bowl Ski Area,Both,CALIFORNIA,39.18157,-120.20212,39.18157,-120.20212
Shirley Meadow Ski Area,Both,CALIFORNIA,35.70915,-118.55925,35.70915,-118.55925
Sierra Ski Ranch,Both,CALIFORNIA,38.79694,-120.07806,38.79694,-120.07806
Silver Basin Ski Area,Both,CALIFORNIA,38.63241,-120.20767,38.63241,-120.20767
Ski Echo Tahoe,Both,CALIFORNIA,38.80667,-120.035,38.80667,-120.035
Ski Heil Peak,Both,CALIFORNIA,40.47278,-121.52111,40.47278,-121.52111
Snow Forest Ski Area,Alpine,CALIFORNIA,34.23444,-116.91667,34.23444,-116.91667
Snow Summit Ski Area,Both,CALIFORNIA,34.22861,-116.89028,34.22861,-116.89028
Snow Valley Ski Area,Alpine,CALIFORNIA,34.21722,-117.03472,34.21722,-117.03472
Soda Springs Ski Area,Both,CALIFORNIA,39.31907,-120.38351,39.31907,-120.38351
Squaw Valley Ski Area,Both,CALIFORNIA,39.19129,-120.25184,39.19129,-120.25184
Stover Mountain Ski Area,Both,CALIFORNIA,40.28931,-121.28938,40.28931,-121.28938
Sugar Bowl Ski Area,Both,CALIFORNIA,39.30434,-120.33573,39.30434,-120.33573
Sunrise Ski Area,Both,CALIFORNIA,34.38835,-117.68421,34.38835,-117.68421
Tahoe Donner Ski Area,Both,CALIFORNIA,39.3524,-120.27157,39.3524,-120.27157
Tahoe Ski Bowl Area,Both,CALIFORNIA,39.065,-120.15917,39.065,-120.15917
Tamarack Cross Country Ski Center,Alpine,CALIFORNIA,37.61861,-119.00556,37.61861,-119.00556
Arapaho Basin Ski Area,Both,COLORADO,39.6436,-105.87309,39.6436,-105.87309
Aspen Highlands Ski Area,Alpine,COLORADO,39.19111,-106.81694,39.19111,-106.81694
Aspen Mountain Ski Area,Both,COLORADO,39.17611,-106.82861,39.17611,-106.82861
Berthoud Pass Ski Area,Both,COLORADO,39.79943,-105.78003,39.79943,-105.78003
Breckenridge Ski Area,Both,COLORADO,39.47388,-106.07393,39.47388,-106.07393
Buttermilk Ski Area,Both,COLORADO,39.19111,-106.81694,39.19111,-106.81694
Chapman Hill Municipal Ski Area,Both,COLORADO,37.28308,-107.86952,37.28308,-107.86952
Conquistador Ski Area,Both,COLORADO,38.11752,-105.58501,38.11752,-105.58501
Cooper Hill Ski Area,Both,COLORADO,39.36055,-106.30228,39.36055,-106.30228
Copper Mountain Ski Area,Both,COLORADO,39.48638,-106.16143,39.48638,-106.16143
Crested Butte Ski Area,Both,COLORADO,38.88333,-106.94306,38.88333,-106.94306
Cuchara Valley Ski Area,Both,COLORADO,37.34781,-105.12583,37.34781,-105.12583
First Creek Ski Cabin,Alpine,COLORADO,39.83278,-105.76806,39.83278,-105.76806
Geneva Basin Ski Area,Both,COLORADO,39.56806,-105.73031,39.56806,-105.73031
Guinn Mountain Ski Trail,Alpine,COLORADO,39.93556,-105.63111,39.93556,-105.63111
Hesperus Ski Center,Both,COLORADO,37.29778,-108.05444,37.29778,-108.05444
Howelsen Hill Ski Area,Both,COLORADO,40.48276,-106.83896,40.48276,-106.83896
Idlewild Ski Area,Both,COLORADO,39.92471,-105.77837,39.92471,-105.77837
Indian Mountain Ski Area,Both,COLORADO,39.24472,-105.7292,39.24472,-105.7292
Jenny Creek Ski Area,Both,COLORADO,39.93527,-105.58642,39.93527,-105.58642
Keystone Ski Area,Both,COLORADO,39.59055,-105.95338,39.59055,-105.95338
Lake Eldora Ski Area,Both,COLORADO,39.9361,-105.59087,39.9361,-105.59087
Loveland Ski Area,Both,COLORADO,39.67805,-105.90116,39.67805,-105.90116
Mary Jane Ski Area,Both,COLORADO,39.86805,-105.77115,39.86805,-105.77115
Monarch Ski Area,Both,COLORADO,38.51029,-106.33949,38.51029,-106.33949
Pikes Peak Ski Area,Both,COLORADO,38.8864,-105.06167,38.8864,-105.06167
Powderhorn Ski Area,Both,COLORADO,39.06749,-108.15899,39.06749,-108.15899
Purgatory Ski Area,Both,COLORADO,37.62445,-107.82814,37.62445,-107.82814
Raton Ski Basin,Both,COLORADO,37.00528,-104.34611,37.00528,-104.34611
Rock Creek Ski Area,Both,COLORADO,40.16082,-105.5367,40.16082,-105.5367
San Isabel Ski Area,Both,COLORADO,38.09196,-105.12084,38.09196,-105.12084
Sevenmile Ski Trail,Alpine,COLORADO,39.81583,-105.7675,39.81583,-105.7675
Silver Creek Ski Area,Both,COLORADO,40.03999,-105.90421,40.03999,-105.90421
Silver Lake Ski Area,Both,COLORADO,39.82693,-105.64531,39.82693,-105.64531
Ski Hi Ranch,Alpine,COLORADO,37.76472,-107.3475,37.76472,-107.3475
Snowmass Ski Area,Both,COLORADO,39.11889,-107.06583,39.11889,-107.06583
Squaw Pass Ski Area,Both,COLORADO,39.68527,-105.52002,39.68527,-105.52002
Stagecoach Ski Area,Both,COLORADO,40.24442,-106.8673,40.24442,-106.8673
Steamboat Ski Area,Both,COLORADO,40.45637,-106.77285,40.45637,-106.77285
Stoner Ski Area,Both,COLORADO,37.58418,-108.32009,37.58418,-108.32009
Telluride Ski Area,Both,COLORADO,37.92612,-107.84342,37.92612,-107.84342
Tenderfoot Ski Area,Both,COLORADO,38.76751,-105.14862,38.76751,-105.14862
Vail Ski Area,Both,COLORADO,39.61416,-106.37505,39.61416,-106.37505
Winter Park Ski Area,Both,COLORADO,39.88332,-105.77392,39.88332,-105.77392
Mohawk Mountain Ski Area,Both,CONNECTICUT,41.83167,-73.30778,41.83167,-73.30778
Mt. Southington Ski Area,Both,CONNECTICUT,41.5825,-72.92556,41.5825,-72.92556
Northview Ski Slope,Both,CONNECTICUT,41.75056,-72.52667,41.75056,-72.52667
Powder Ridge Ski Area,Both,CONNECTICUT,41.51722,-72.7125,41.51722,-72.7125
Ski Sundown,Both,CONNECTICUT,41.88222,-72.9775,41.88222,-72.9775
Winding Trails Cross Country Ski Cen,Alpine,CONNECTICUT,41.75528,-72.84611,41.75528,-72.84611
Woodbury Ski Area,Both,CONNECTICUT,41.79833,-73.34917,41.79833,-73.34917
Sky Valley Ski Area,Both,GEORGIA,34.9875,-83.33333,34.9875,-83.33333
Bald Mountain Ski Area,Both,IDAHO,43.655,-114.40833,43.655,-114.40833
Bear Gulch Ski Area,Both,IDAHO,44.14964,-111.28914,44.14964,-111.28914
Blizzard Mountain Ski Area,Both,IDAHO,43.50823,-113.55921,43.50823,-113.55921
Caribou Ski Area,Both,IDAHO,42.86825,-112.33139,42.86825,-112.33139
City Ski Area,Both,IDAHO,43.82905,-115.82262,43.82905,-115.82262
Dollar Mountain Ski Area,Both,IDAHO,43.67917,-114.34222,43.67917,-114.34222
Hitt Mountain Ski Area,Both,IDAHO,44.62931,-116.92822,44.62931,-116.92822
Kelly Canyon Ski Area,Both,IDAHO,43.64575,-111.62999,43.64575,-111.62999
Lamarack Ski Area,Both,IDAHO,46.81569,-116.82547,46.81569,-116.82547
Little Lost Ski Area,Both,IDAHO,43.83324,-113.19448,43.83324,-113.19448
Lolo Pass Ski Area,Both,IDAHO,46.63655,-114.57652,46.63655,-114.57652
Lookout Pass Ski Area,Both,IDAHO,47.45488,-115.69684,47.45488,-115.69684
Magic Mountain Ski Area,Both,IDAHO,42.18824,-114.2856,42.18824,-114.2856
North-South Ski Bowl,Both,IDAHO,47.06583,-116.65667,47.06583,-116.65667
Payette Lake Ski Area,Alpine,IDAHO,44.92821,-116.16181,44.92821,-116.16181
Payette Lakes Ski Area,Both,IDAHO,44.92988,-116.1632,44.92988,-116.1632
Pebble Creek Ski Area,Both,IDAHO,42.77575,-112.15276,42.77575,-112.15276
Pine Basin Ski Area,Both,IDAHO,43.53159,-111.3272,43.53159,-111.3272
Pine Street Ski Area,Both,IDAHO,48.28348,-116.62578,48.28348,-116.62578
Pomerelle Ski Area,Both,IDAHO,42.31213,-113.61197,42.31213,-113.61197
Schweitzer Basin Ski Area,Both,IDAHO,48.38654,-116.61328,48.38654,-116.61328
Silverhorn Ski Area,Both,IDAHO,47.48959,-116.13714,47.48959,-116.13714
Snow Haven Ski Area,Both,IDAHO,45.86904,-116.09127,45.86904,-116.09127
Taylor Mountain Ski Area,Both,IDAHO,43.32548,-111.93082,43.32548,-111.93082
Chestnut Mountain,Both,ILLINOIS,42.41667,-90.42889,42.41667,-90.42889
Four Lakes Village,Both,ILLINOIS,41.80111,-88.07472,41.80111,-88.07472
Raging Buffalo Snowboard Park,Both,ILLINOIS,42.16556,-88.29417,42.16556,-88.29417
Ski Snow Star,Both,ILLINOIS,41.38667,-90.66806,41.38667,-90.66806
Villa Olivia Ski Area,Both,ILLINOIS,42.0125,-88.22,42.0125,-88.22
Paoli Peaks Ski Area,Both,INDIANA,38.55611,-86.46833,38.55611,-86.46833
Perfect North Ski Area,Both,INDIANA,39.09083,-84.85,39.09083,-84.85
Pines Peak Ski Area,Both,INDIANA,41.47306,-87.06111,41.47306,-87.06111
Ski World,Both,INDIANA,39.20722,-86.25111,39.20722,-86.25111
Fun Valley Ski Area,Both,IOWA,41.56667,-92.58194,41.56667,-92.58194
Mt. Crescent Ski Area,Both,IOWA,41.39333,-95.86389,41.39333,-95.86389
Nor-Ski Runs Ski Area,Both,IOWA,43.325,-91.81389,43.325,-91.81389
Riverside Hills Ski Area,Both,IOWA,43.3875,-94.83333,43.3875,-94.83333
Seven Oaks Ski Area,Both,IOWA,42.05972,-93.88,42.05972,-93.88
Big Squaw Ski Area,Both,MAINE,45.48417,-69.71167,45.48417,-69.71167
Bigrock-Mars Hill Ski Area,Both,MAINE,46.52139,-67.81417,46.52139,-67.81417
Black Mountain Ski Area,Both,MAINE,44.58472,-70.6375,44.58472,-70.6375
Camden Snow Bowl,Both,MAINE,44.20972,-69.06528,44.20972,-69.06528
Eaton Mountain Ski Area,Both,MAINE,44.76528,-69.62556,44.76528,-69.62556
Lost Valley Ski Area,Both,MAINE,44.13611,-70.28056,44.13611,-70.28056
Mt. Abram Ski Area,Both,MAINE,44.4,-70.7025,44.4,-70.7025
Mt. Jefferson Ski Area,Both,MAINE,45.36389,-68.28472,45.36389,-68.28472
New Hermon Mountain Ski Area,Both,MAINE,44.84222,-68.87417,44.84222,-68.87417
Saddleback Mountain Ski Area,Both,MAINE,44.94722,-70.52778,44.94722,-70.52778
Shawneepeak Ski Area,Both,MAINE,44.05472,-70.71333,44.05472,-70.71333
Spruce Mountain Ski Area,Both,MAINE,44.55639,-70.20056,44.55639,-70.20056
Sugarloaf Ski Area,Both,MAINE,45.06611,-70.27389,45.06611,-70.27389
Sunday River Ski Area,Both,MAINE,44.46556,-70.86389,44.46556,-70.86389
Titcomb Ski Area,Both,MAINE,44.64861,-70.17167,44.64861,-70.17167
Wisp - McHenry Ski Area,Both,MARYLAND,39.55833,-79.35306,39.55833,-79.35306
Atlantic Forest Ski Area,Both,MASSACHUSETTS,42.86833,-70.93472,42.86833,-70.93472
Berkshire Show Basin Ski Area,Both,MASSACHUSETTS,42.48722,-72.48722,42.48722,-72.48722
Blandford Ski Area,Both,MASSACHUSETTS,42.19556,-72.9175,42.19556,-72.9175
Blue Hills Ski Area,Both,MASSACHUSETTS,42.24306,-71.09861,42.24306,-71.09861
Boston Hill Ski Area,Both,MASSACHUSETTS,42.64917,-71.09472,42.64917,-71.09472
Bousquet Ski Area,Both,MASSACHUSETTS,42.41611,-73.27972,42.41611,-73.27972
Bradford Ski Area,Both,MASSACHUSETTS,42.74361,-71.05944,42.74361,-71.05944
Brodie Mountain Ski Area,Both,MASSACHUSETTS,42.59528,-73.26278,42.59528,-73.26278
Bucksteep Cross-Country Ski Area,Alpine,MASSACHUSETTS,42.35944,-73.13417,42.35944,-73.13417
Butternut Basin Ski Area,Both,MASSACHUSETTS,42.17028,-73.31472,42.17028,-73.31472
Catamount Ski Area,Both,MASSACHUSETTS,42.42722,-73.25944,42.42722,-73.25944
Charlemont Ski Area,Both,MASSACHUSETTS,42.62778,-72.87028,42.62778,-72.87028
Cherry Hill Cross Country Ski Center,Alpine,MASSACHUSETTS,42.41944,-72.52111,42.41944,-72.52111
East Mountain Ski Touring Center,Alpine,MASSACHUSETTS,42.15861,-72.69278,42.15861,-72.69278
Groton Hills Ski Area,Both,MASSACHUSETTS,42.62306,-71.54111,42.62306,-71.54111
Jericho Hill Ski Slope,Both,MASSACHUSETTS,42.32917,-71.55972,42.32917,-71.55972
Jiminy Peak Ski Area,Both,MASSACHUSETTS,42.55083,-73.29139,42.55083,-73.29139
Klein-Innsbruck Ski Area,Both,MASSACHUSETTS,42.08333,-71.39722,42.08333,-71.39722
Mount Greylock Ski Club,Both,MASSACHUSETTS,42.63306,-73.21583,42.63306,-73.21583
Mount Tom Ski and Recreation Area,Alpine,MASSACHUSETTS,42.24861,-72.63333,42.24861,-72.63333
Nashoba Valley Ski Area,Both,MASSACHUSETTS,42.54417,-71.46611,42.54417,-71.46611
Otis Ridge Ski Area,Both,MASSACHUSETTS,42.19583,-73.1,42.19583,-73.1
Pine Ridge Ski Area,Both,MASSACHUSETTS,42.40194,-72.10556,42.40194,-72.10556
Prospect Hill Ski Area,Both,MASSACHUSETTS,42.39444,-71.25056,42.39444,-71.25056
Sodom Mountain Ski Area,Both,MASSACHUSETTS,42.07861,-72.81833,42.07861,-72.81833
Stony Ledge Ski Trail,Alpine,MASSACHUSETTS,42.64417,-73.20778,42.64417,-73.20778
Thunderbolt Ski Trail,Alpine,MASSACHUSETTS,42.6375,-73.1525,42.6375,-73.1525
Wachusett Mountain Ski Area,Both,MASSACHUSETTS,42.49944,-71.88694,42.49944,-71.88694
Ward Hill Ski Area,Both,MASSACHUSETTS,42.29583,-71.71333,42.29583,-71.71333
Weston XC Ski Trail,Alpine,MASSACHUSETTS,42.36667,-71.30361,42.36667,-71.30361
Williams College Ski Area,Both,MASSACHUSETTS,42.70083,-73.27972,42.70083,-73.27972
ABR Cross Country Ski,Alpine,MICHIGAN,46.45472,-90.17083,46.45472,-90.17083
Addis Lakes Ski Trail,Alpine,MICHIGAN,46.34444,-86.80806,46.34444,-86.80806
Alpine Valley Ski Area,Both,MICHIGAN,42.69167,-83.55417,42.69167,-83.55417
Alquaal - Ishpeming Ski Area,Both,MICHIGAN,46.48861,-87.6675,46.48861,-87.6675
Apple Mountain Ski Area,Both,MICHIGAN,43.47056,-84.1075,43.47056,-84.1075
Big Powderhorn Mt. Ski Area,Both,MICHIGAN,46.48139,-90.05278,46.48139,-90.05278
Bittersweet Ski Area,Both,MICHIGAN,42.46056,-85.69639,42.46056,-85.69639
Blackjack Ski Area,Both,MICHIGAN,46.48139,-90.05278,46.48139,-90.05278
Boyne Highlands Ski Area,Both,MICHIGAN,45.46861,-84.92222,45.46861,-84.92222
Boyne Mountain Ski Area,Both,MICHIGAN,45.15861,-84.93889,45.15861,-84.93889
Briar Hill Ski Jump,Both,MICHIGAN,44.39861,-85.66667,44.39861,-85.66667
Brule Mountain Ski Area,Both,MICHIGAN,46.02917,-88.70694,46.02917,-88.70694
Caberfae Peaks Ski Area,Both,MICHIGAN,44.2225,-85.69944,44.2225,-85.69944
Cannonsburg Ski Area,Both,MICHIGAN,43.05389,-85.46972,43.05389,-85.46972
Chatham Hill Ski Area,Both,MICHIGAN,46.35694,-86.88667,46.35694,-86.88667
Chatham Ski Trail,Alpine,MICHIGAN,46.36139,-86.89194,46.36139,-86.89194
Crystal Mountain Ski Area,Both,MICHIGAN,44.51972,-85.99167,44.51972,-85.99167
Gladstone Ski Park,Both,MICHIGAN,45.89472,-87.02889,45.89472,-87.02889
Hanson Hills Ski Area,Both,MICHIGAN,44.64444,-84.75528,44.64444,-84.75528
Harbor Highlands Ski Club,Both,MICHIGAN,45.46778,-84.93583,45.46778,-84.93583
Hickory Hills Ski Area,Both,MICHIGAN,44.76306,-85.62056,44.76306,-85.62056
Hidden Valley Resort,Both,MICHIGAN,45.03194,-84.65222,45.03194,-84.65222
Homestead Ski Area,Both,MICHIGAN,44.8975,-85.98528,44.8975,-85.98528
Hungerford Cross Country Ski Trail,Alpine,MICHIGAN,43.71306,-85.62722,43.71306,-85.62722
Indianhead Mountain Ski Area,Both,MICHIGAN,46.47528,-89.93972,46.47528,-89.93972
Iroquois Mountain Ski Area,Both,MICHIGAN,46.4775,-84.68611,46.4775,-84.68611
Maple Mountain Ski Area,Both,MICHIGAN,46.40278,-86.65333,46.40278,-86.65333
Marquette Mountain Ski Area,Both,MICHIGAN,46.54361,-87.39528,46.54361,-87.39528
McKenzie Ski Trial,Alpine,MICHIGAN,44.23889,-85.72917,44.23889,-85.72917
Mio Mountain Ski Area,Both,MICHIGAN,44.63778,-84.14,44.63778,-84.14
Missaukee Mountain Ski Area,Both,MICHIGAN,44.33528,-85.215,44.33528,-85.215
Mont Ripley Ski Area,Both,MICHIGAN,47.12194,-88.56889,47.12194,-88.56889
Mount Brighton Ski Area,Both,MICHIGAN,42.53806,-83.80694,42.53806,-83.80694
Mt. Holiday Ski Area,Both,MICHIGAN,44.76306,-85.62056,44.76306,-85.62056
Mt. Holly Ski Area,Both,MICHIGAN,42.82806,-83.56722,42.82806,-83.56722
Mt. Mcsauba Ski Area,Both,MICHIGAN,45.33417,-85.24528,45.33417,-85.24528
Mt. Zion Ski Area,Both,MICHIGAN,46.47722,-90.16778,46.47722,-90.16778
Mulligans Ski Area,Both,MICHIGAN,43.05694,-86.24,43.05694,-86.24
Norway Mountain Ski Area,Alpine,MICHIGAN,45.78694,-87.90361,45.78694,-87.90361
Nubs Nob Ski Area,Both,MICHIGAN,45.46833,-84.90361,45.46833,-84.90361
Pando Ski Area,Both,MICHIGAN,43.12,-85.56,43.12,-85.56
Petoskey Ski Area,Both,MICHIGAN,45.37333,-84.95528,45.37333,-84.95528
Pine Knob Ski Area,Both,MICHIGAN,42.74222,-83.36722,42.74222,-83.36722
Pine Mountain Ski Area,Both,MICHIGAN,45.83306,-88.08194,45.83306,-88.08194
Pioneer Ski Hill,Both,MICHIGAN,44.49694,-84.66833,44.49694,-84.66833
Porcupine Ski Area,Both,MICHIGAN,46.68917,-89.85,46.68917,-89.85
Shanty Creek Ski Area,Both,MICHIGAN,44.92806,-85.20917,44.92806,-85.20917
Sheridan Valley Ski Area,Both,MICHIGAN,44.92444,-84.24167,44.92444,-84.24167
Skyline Ski Slide,Both,MICHIGAN,44.57389,-84.69083,44.57389,-84.69083
Snow Snake Mt. Ski Area,Both,MICHIGAN,44.01917,-84.79944,44.01917,-84.79944
Snow Valley Ski Club,Both,MICHIGAN,44.95889,-84.71028,44.95889,-84.71028
Sugar Loaf Ski Area,Both,MICHIGAN,44.91306,-85.81917,44.91306,-85.81917
Summit Ski Club,Both,MICHIGAN,42.74667,-83.72944,42.74667,-83.72944
Swiss Valley Ski Area,Both,MICHIGAN,41.9025,-85.79944,41.9025,-85.79944
Timber Ridge Ski Area,Both,MICHIGAN,42.36083,-85.87944,42.36083,-85.87944
Tree Tops Sylvan Ski Area,Both,MICHIGAN,45.0275,-84.67472,45.0275,-84.67472
Valley Spur Ski Trail,Alpine,MICHIGAN,46.36306,-86.69944,46.36306,-86.69944
Afton Alps Ski Area,Both,MINNESOTA,44.74333,-92.85222,44.74333,-92.85222
Andes Tower Hills Ski Area,Both,MINNESOTA,45.77806,-95.69583,45.77806,-95.69583
Blue Fin XC Area,Cross-Country,MINNESOTA,48.46333,-92.93722,48.46333,-92.93722
Buck Hill Ski Area,Both,MINNESOTA,44.72306,-93.28694,44.72306,-93.28694
Buena Vista Ski Area,Both,MINNESOTA,47.65833,-94.87778,47.65833,-94.87778
Cascade Lodge XC Trail,Cross-Country,MINNESOTA,47.66417,-90.71222,47.66417,-90.71222
Chester Bowl Ski Area,Both,MINNESOTA,46.78333,-92.10639,46.78333,-92.10639
Coffee Mill Ski Area,Both,MINNESOTA,44.36889,-92.08306,44.36889,-92.08306
Detroit Mountain Ski Area,Both,MINNESOTA,46.81639,-95.78306,46.81639,-95.78306
Giants Ridge Ski Area,Both,MINNESOTA,47.57556,-92.30056,47.57556,-92.30056
Hyland Hills Ski Area,Both,MINNESOTA,44.83056,-93.37111,44.83056,-93.37111
Lutsen Mountains Ski Area,Both,MINNESOTA,47.66417,-90.71222,47.66417,-90.71222
Mount Frontenac Ski Area,Both,MINNESOTA,44.51111,-92.35639,44.51111,-92.35639
Mount Kato Ski Area,Both,MINNESOTA,44.16361,-93.99917,44.16361,-93.99917
Powder Ridge Ski Area,Both,MINNESOTA,45.3125,-94.3,45.3125,-94.3
Quadna Mountain Ski Area,Both,MINNESOTA,46.96306,-93.58667,46.96306,-93.58667
Rainbow Resort XC Trail,Cross-Country,MINNESOTA,47.18056,-95.93889,47.18056,-95.93889
Shingobee Ski Area,Both,MINNESOTA,47.03528,-94.6425,47.03528,-94.6425
Ski Gull Ski Area,Both,MINNESOTA,46.35806,-94.20056,46.35806,-94.20056
Spirit Mountain Ski Area,Both,MINNESOTA,46.78333,-92.10639,46.78333,-92.10639
Welch Village Ski Area,Both,MINNESOTA,44.56833,-92.73833,44.56833,-92.73833
Wild Mountain Ski Area,Both,MINNESOTA,45.48694,-92.71306,45.48694,-92.71306
Hidden Valley Ski Area,Both,MISSOURI,38.5025,-90.62778,38.5025,-90.62778
Snow Bluff Ski Area,Both,MISSOURI,37.45778,-93.34778,37.45778,-93.34778
Snow Creek Ski Area,Both,MISSOURI,36.96639,-90.3525,36.96639,-90.3525
Africa Ski Trail,Alpine,MONTANA,45.28083,-111.40583,45.28083,-111.40583
Alpine Access Ski Trail,Alpine,MONTANA,45.81722,-110.89583,45.81722,-110.89583
Alpinglow Alley Ski Trail,Alpine,MONTANA,48.485,-114.35278,48.485,-114.35278
Arkansas Traveller Ski Trail,Alpine,MONTANA,46.83861,-110.70806,46.83861,-110.70806
Atlantic Cable Ski Trail,Alpine,MONTANA,46.25639,-113.24111,46.25639,-113.24111
Auto Bahn Ski Trail,Alpine,MONTANA,45.1875,-109.35,45.1875,-109.35
B-2 Ski Trail,Alpine,MONTANA,45.69306,-113.95139,45.69306,-113.95139
Bear Canyon Ski Lodge,Both,MONTANA,45.60694,-110.92194,45.60694,-110.92194
Bear Paw Ski Bowl,Both,MONTANA,48.17778,-109.63333,48.17778,-109.63333
Big Sky Ski Area,Both,MONTANA,45.28074,-111.40583,45.28074,-111.40583
Big Sky Ski Trail,Alpine,MONTANA,47.02361,-113.99639,47.02361,-113.99639
Blacktail Ski Area,Both,MONTANA,48.01656,-114.3732,48.01656,-114.3732
Bridger Bowl Ski Area,Both,MONTANA,45.81713,-110.89666,45.81713,-110.89666
Butte Ski Club,Both,MONTANA,45.9525,-112.60056,45.9525,-112.60056
Castle Hill Ski Area,Both,MONTANA,46.9502,-109.38135,46.9502,-109.38135
Deep Creek Ski Area,Both,MONTANA,45.90407,-113.11396,45.90407,-113.11396
Discovery Basin Ski Area,Both,MONTANA,46.25629,-113.24202,46.25629,-113.24202
Essex Cross Country Ski Area,Cross-Country,MONTANA,48.27378,-113.62485,48.27378,-113.62485
Foothills Cross Country Ski Area,Alpine,MONTANA,48.14295,-113.99264,48.14295,-113.99264
Foothills Cross-Country Ski Area,Alpine,MONTANA,48.13961,-113.99875,48.13961,-113.99875
Foy Lake Cross Country Ski Area,Alpine,MONTANA,48.14878,-114.35515,48.14878,-114.35515
Grass Mountain Ski Area,Both,MONTANA,46.35602,-111.10667,46.35602,-111.10667
Lakeview Mountain Ski Area,Both,MONTANA,44.58991,-111.81362,44.58991,-111.81362
Lionhead Ski Area,Both,MONTANA,44.69548,-111.2911,44.69548,-111.2911
Lubrecht Camp Ski Area,Both,MONTANA,46.89545,-113.44815,46.89545,-113.44815
Marshall Ski Area,Both,MONTANA,46.91989,-113.90677,46.91989,-113.90677
Maverick Mountain Ski Area,Both,MONTANA,45.4349,-113.1295,45.4349,-113.1295
Red Lodge Mountain Ski Area,Both,MONTANA,45.19021,-109.35077,45.19021,-109.35077
Rocky Mountain Hi Ski Area,Both,MONTANA,47.79157,-112.75148,47.79157,-112.75148
Round Meadow Country Ski Area,Alpine,MONTANA,48.4585,-114.52905,48.4585,-114.52905
Round Meadow Cross Country Ski Area,Cross-Country,MONTANA,48.45822,-114.54127,48.45822,-114.54127
Snow Bowl Ski Area,Both,MONTANA,47.0235,-113.99734,47.0235,-113.99734
Snow Park Ski Area,Alpine,MONTANA,47.01433,-114.02956,47.01433,-114.02956
Turner Mountain Ski Area,Alpine,MONTANA,48.60488,-115.63047,48.60488,-115.63047
Wraith Hill Ski Area,Alpine,MONTANA,46.17184,-113.21174,46.17184,-113.21174
Back Side of the Moon Ski Trail,Alpine,MONTANA,48.605,-115.62944,48.605,-115.62944
Heavenly Valley Ski Area,Both,NEVADA,38.93769,-119.90878,38.93769,-119.90878
Incline Ski Area,Both,NEVADA,39.25379,-119.9235,39.25379,-119.9235
Lee Canyon Ski Area,Both,NEVADA,36.3036,-115.67974,36.3036,-115.67974
Mount Rose Ski Area,Both,NEVADA,39.32907,-119.88572,39.32907,-119.88572
Old Mill Cross Country Ski Area,Alpine,NEVADA,36.32055,-115.67752,36.32055,-115.67752
Sky Tavern Ski Area,Both,NEVADA,39.33657,-119.8735,39.33657,-119.8735
Sky Tavern Ski Area,Alpine,NEVADA,39.33796,-119.901,39.33796,-119.901
Slide Mountain Ski Area,Both,NEVADA,39.31879,-119.87128,39.31879,-119.87128
Abenaki Ski Area,Both,NEW HAMPSHIRE,43.61139,-71.22833,43.61139,-71.22833
Alpine Ridge Ski Area,Both,NEW HAMPSHIRE,43.54583,-71.36889,43.54583,-71.36889
Attitash Bear Peak Ski Area,Both,NEW HAMPSHIRE,44.08278,-71.23,44.08278,-71.23
Balsams-Wilderness Ski Area,Both,NEW HAMPSHIRE,44.85694,-71.79389,44.85694,-71.79389
Bear Mountain Ski Trail,Alpine,NEW HAMPSHIRE,44.04583,-71.2975,44.04583,-71.2975
Black Mountain Ski Areal,Both,NEW HAMPSHIRE,44.16722,-71.16472,44.16722,-71.16472
Black Water Ski Area,Both,NEW HAMPSHIRE,43.24194,-70.91667,43.24194,-70.91667
Bretton Woods Ski Area,Both,NEW HAMPSHIRE,44.25417,-71.46111,44.25417,-71.46111
Brookline Ski Area,Both,NEW HAMPSHIRE,42.73611,-71.69167,42.73611,-71.69167
Cannon Mountain Ski Area,Both,NEW HAMPSHIRE,44.17722,-71.70194,44.17722,-71.70194
Dartmouth Skiway,Both,NEW HAMPSHIRE,43.78694,-72.10083,43.78694,-72.10083
Doublehead Ski Trail,Alpine,NEW HAMPSHIRE,44.16861,-71.14,44.16861,-71.14
Eastman Ski Area,Both,NEW HAMPSHIRE,43.52222,-72.12917,43.52222,-72.12917
Elgin Kirby Ski Area,Both,NEW HAMPSHIRE,43.26333,-71.53472,43.26333,-71.53472
Franconia Cross Country Center,Alpine,NEW HAMPSHIRE,44.22694,-71.74833,44.22694,-71.74833
Great Glen Trails,Both,NEW HAMPSHIRE,44.38778,-71.17361,44.38778,-71.17361
Gunstock Ski Area,Both,NEW HAMPSHIRE,43.52556,-71.37889,43.52556,-71.37889
Highland Ski Area,Both,NEW HAMPSHIRE,43.40528,-71.55417,43.40528,-71.55417
Indian Mound Ski Area,Both,NEW HAMPSHIRE,42.86278,-71.04722,42.86278,-71.04722
Intervale Ski Area,Both,NEW HAMPSHIRE,44.10444,-71.14083,44.10444,-71.14083
Jackson Ski Touring Foundation,Alpine,NEW HAMPSHIRE,44.145,-71.18583,44.145,-71.18583
King Pine Ski Area,Both,NEW HAMPSHIRE,43.87083,-71.09167,43.87083,-71.09167
King Ridge Ski Area,Both,NEW HAMPSHIRE,43.37194,-71.99028,43.37194,-71.99028
Loon Mountain Ski Area,Both,NEW HAMPSHIRE,44.05667,-71.63028,44.05667,-71.63028
McIntyre Ski Area,Both,NEW HAMPSHIRE,43.00417,-71.43944,43.00417,-71.43944
Moose Mountain Ski Area,Both,NEW HAMPSHIRE,43.53278,-71.07806,43.53278,-71.07806
Mount Cranmore Ski Area,Both,NEW HAMPSHIRE,44.05556,-71.09389,44.05556,-71.09389
Mount Sunapee Ski Area,Both,NEW HAMPSHIRE,43.34056,-72.07139,43.34056,-72.07139
Mount Tecumseh Ski Area,Both,NEW HAMPSHIRE,43.96278,-71.54222,43.96278,-71.54222
Mount Whittier Ski Area,Both,NEW HAMPSHIRE,43.80806,-71.21444,43.80806,-71.21444
Nestlenook Farm on the River Ski Are,Both,NEW HAMPSHIRE,44.16333,-71.14167,44.16333,-71.14167
Norsk Cross Country Resort,Alpine,NEW HAMPSHIRE,43.41389,-71.98556,43.41389,-71.98556
Number Five Ski Trail,Alpine,NEW HAMPSHIRE,44.09722,-71.12139,44.09722,-71.12139
Ossipee Mountain Ski Area,Both,NEW HAMPSHIRE,43.76,-71.35417,43.76,-71.35417
Pats Peak Ski Area,Both,NEW HAMPSHIRE,43.16222,-71.79667,43.16222,-71.79667
Pinnacle Mountain Ski Area,Both,NEW HAMPSHIRE,42.97083,-72.21306,42.97083,-72.21306
Purity Springs Ski Area,Both,NEW HAMPSHIRE,43.86111,-71.08889,43.86111,-71.08889
Ragged Mountain Ski Area,Both,NEW HAMPSHIRE,43.47639,-71.84306,43.47639,-71.84306
Roads End Farm Ski Area,Both,NEW HAMPSHIRE,42.88861,-72.44611,42.88861,-72.44611
Snapper Ski Trail,Alpine,NEW HAMPSHIRE,43.99722,-71.82722,43.99722,-71.82722
Storrs Hill Ski Area,Both,NEW HAMPSHIRE,43.63389,-72.25167,43.63389,-72.25167
Temple Mountain Ski Area,Both,NEW HAMPSHIRE,42.84444,-71.88639,42.84444,-71.88639
Tenney Mountain Ski Area,Both,NEW HAMPSHIRE,43.73583,-71.79389,43.73583,-71.79389
Tuckerman's Ravine Ski Area,Both,NEW HAMPSHIRE,44.26306,-71.27528,44.26306,-71.27528
Waterville Valley Ski Area,Both,NEW HAMPSHIRE,43.96528,-71.52917,43.96528,-71.52917
Whaleback Ski Resort,Both,NEW HAMPSHIRE,44.08722,-71.62,44.08722,-71.62
Wildcat Mountain Ski Area,Both,NEW HAMPSHIRE,44.26,-71.23528,44.26,-71.23528
Campgaw Mountain Ski Area,Both,NEW JERSEY,41.05417,-74.19972,41.05417,-74.19972
Hidden Valley Ski Area,Both,NEW JERSEY,41.19833,-74.4836,41.19833,-74.4836
High Point XC Ski Trail,Alpine,NEW JERSEY,41.32056,-74.66194,41.32056,-74.66194
Mountain Creek Ski Area,Both,NEW JERSEY,41.19833,-74.4836,41.19833,-74.4836
Adventure Ski Trail,Alpine,NEW MEXICO,36.38778,-105.27222,36.38778,-105.27222
Alpine Ski Trail,Alpine,NEW MEXICO,35.79111,-105.79444,35.79111,-105.79444
Als Run Ski Area,Alpine,NEW MEXICO,36.59449,-105.45278,36.59449,-105.45278
Ambush Ski Trail,Alpine,NEW MEXICO,33.39722,-105.78806,33.39722,-105.78806
Angel Fire Ski Area,Alpine,NEW MEXICO,36.38033,-105.23555,36.38033,-105.23555
Angel Fire Ski Area,Both,NEW MEXICO,36.38422,-105.27222,36.38422,-105.27222
Arriba Ski Trail,Alpine,NEW MEXICO,36.43778,-105.27222,36.43778,-105.27222
Aspen Bowl Ski Area,Both,NEW MEXICO,35.20701,-106.41836,35.20701,-106.41836
Aspen Glade Ski Trail,Alpine,NEW MEXICO,35.20694,-106.41806,35.20694,-106.41806
Aspen Narrows Ski Trail,Alpine,NEW MEXICO,35.20694,-106.41778,35.20694,-106.41778
Baby Bear Ski Trail,Alpine,NEW MEXICO,36.59444,-105.45222,36.59444,-105.45222
Cascade Ski Trail,Alpine,NEW MEXICO,32.95056,-105.70417,32.95056,-105.70417
Fire Escape Ski Trail,Alpine,NEW MEXICO,36.3875,-105.27222,36.3875,-105.27222
Midway Ski Trail,Alpine,NEW MEXICO,36.59556,-105.45222,36.59556,-105.45222
Pajarito Mountain Ski Area,Both,NEW MEXICO,35.89033,-106.3928,35.89033,-106.3928
Red River Ski Area,Both,NEW MEXICO,36.70754,-105.41584,36.70754,-105.41584
Rio Costilla Ski Area,Both,NEW MEXICO,36.85893,-105.44806,36.85893,-105.44806
Sierra Blanca Ski Area,Both,NEW MEXICO,33.39733,-105.79916,33.39733,-105.79916
Sipapu Ski Area,Both,NEW MEXICO,36.15505,-105.55195,36.15505,-105.55195
Ski Cloudcroft Ski Area,Both,NEW MEXICO,32.9493,-105.7061,32.9493,-105.7061
Top Notch Ski Area,Alpine,NEW MEXICO,33.39733,-105.78861,33.39733,-105.78861
Triple Chair Number Five Ski Trail,Alpine,NEW MEXICO,33.39778,-105.78806,33.39778,-105.78806
Val Verde Ski Area,Both,NEW MEXICO,36.55505,-105.32166,36.55505,-105.32166
Allegany XC Trail,Alpine,NEW YORK,42.15778,-78.71528,42.15778,-78.71528
Bald Hill Ski Bowl,Both,NEW YORK,40.84389,-73.02278,40.84389,-73.02278
Belleayre Ski Area,Both,NEW YORK,42.14417,-74.49028,42.14417,-74.49028
Big Tupper Ski Area,Both,NEW YORK,44.22389,-74.46444,44.22389,-74.46444
Bob Cat Ski Center,Both,NEW YORK,42.18861,-74.78611,42.18861,-74.78611
Bova Ski Tow,Both,NEW YORK,42.10111,-78.71639,42.10111,-78.71639
Brantling Ski Area,Both,NEW YORK,43.1475,-77.06917,43.1475,-77.06917
Bristol Mountain Ski Area,Both,NEW YORK,42.87417,-77.28833,42.87417,-77.28833
Byrncliff Resort Ski Area,Both,NEW YORK,42.76333,-78.31,42.76333,-78.31
Catamount Ski Area,Both,NEW YORK,42.17889,-73.52639,42.17889,-73.52639
Cockaigne Ski Area,Both,NEW YORK,42.29444,-79.1,42.29444,-79.1
Cortina Valley Ski Area,Both,NEW YORK,42.19583,-74.0975,42.19583,-74.0975
Dry Hill Ski Area,Both,NEW YORK,43.97472,-75.91111,43.97472,-75.91111
Fahnestock Ski Slope,Both,NEW YORK,41.47528,-73.81833,41.47528,-73.81833
Four Seasons Ski Area,Both,NEW YORK,43.02972,-76.00472,43.02972,-76.00472
Friends Lake Inn XC Trail,Cross-Country,NEW YORK,43.62944,-73.84278,43.62944,-73.84278
Frost Ridge Ski Area,Both,NEW YORK,42.97833,-77.98444,42.97833,-77.98444
Garnett Hill XC Ski Trail,Cross-Country,NEW YORK,43.73861,-74.04917,43.73861,-74.04917
Gore Mountain Ski Area,Both,NEW YORK,43.67639,-74.03556,43.67639,-74.03556
Greek Peak Ski Area,Both,NEW YORK,42.60111,-76.18083,42.60111,-76.18083
Hickory Ski Area,Both,NEW YORK,42.81417,-73.94,42.81417,-73.94
Holiday Mountain Ski Area,Both,NEW YORK,41.65556,-74.68972,41.65556,-74.68972
Holiday Valley Ski Area,Alpine,NEW YORK,42.26194,-78.68,42.26194,-78.68
Holiday Valley Ski Club,Alpine,NEW YORK,42.26194,-78.68,42.26194,-78.68
Holimont Ski Area,Both,NEW YORK,42.2725,-78.68889,42.2725,-78.68889
Holimont Ski Club,Alpine,NEW YORK,42.2725,-78.68889,42.2725,-78.68889
Hunt Hollow Ski Area,Both,NEW YORK,42.61528,-77.40278,42.61528,-77.40278
Hunter Mountain Ski area,Both,NEW YORK,42.17778,-74.23083,42.17778,-74.23083
Kissing Bridge Ski Area,Both,NEW YORK,42.61917,-78.65806,42.61917,-78.65806
Labrador Mountain Ski Area,Both,NEW YORK,42.75722,-76.07417,42.75722,-76.07417
Lapland Lake Ski Area,Both,NEW YORK,43.22556,-74.1725,43.22556,-74.1725
Maple Ski Ridge,Both,NEW YORK,42.81417,-73.94,42.81417,-73.94
McCauley Mt. Ski Area,Both,NEW YORK,43.39583,-74.89,43.39583,-74.89
Mount Peter Ski Area,Both,NEW YORK,41.24139,-74.29111,41.24139,-74.29111
Mount Pisgah Ski Area,Both,NEW YORK,44.34528,-74.12583,44.34528,-74.12583
Mt. Vanhoevenberg XC Ski Trail,Cross-Country,NEW YORK,44.27944,-73.98028,44.27944,-73.98028
North Hampton Park Ski Area,Both,NEW YORK,43.21361,-77.93944,43.21361,-77.93944
Olympic Ski Jump,Both,NEW YORK,44.25639,-73.965,44.25639,-73.965
Paleface Ski Center,Both,NEW YORK,44.38111,-73.75556,44.38111,-73.75556
Peek n Peak Ski Area,Both,NEW YORK,42.11917,-79.73278,42.11917,-79.73278
Poverty Hill Ski Club,Both,NEW YORK,42.31556,-78.69583,42.31556,-78.69583
Skaneateles Ski Area,Both,NEW YORK,42.94694,-76.42944,42.94694,-76.42944
Ski Plattekill Ski Area,Both,NEW YORK,42.26667,-74.64861,42.26667,-74.64861
Ski Tamarack Ski Area,Both,NEW YORK,42.64417,-78.685,42.64417,-78.685
Ski Valley Club,Both,NEW YORK,42.61528,-77.40278,42.61528,-77.40278
Snow Ridge Ski Area,Both,NEW YORK,43.62722,-75.41167,43.62722,-75.41167
Song Mountain Ski Area,Both,NEW YORK,42.79806,-76.10972,42.79806,-76.10972
Sterling Forest Ski Area,Both,NEW YORK,41.1825,-74.31917,41.1825,-74.31917
Swain Ski Area,Both,NEW YORK,42.47778,-77.85361,42.47778,-77.85361
Taconic Trails Ski Area,Both,NEW YORK,42.72222,-73.27917,42.72222,-73.27917
Thunder Ridge Ski Area,Both,NEW YORK,41.51361,-73.60667,41.51361,-73.60667
Titus Mountain Ski Area,Both,NEW YORK,44.72611,-74.23778,44.72611,-74.23778
Toggenberg Ski Area,Both,NEW YORK,42.835,-75.98639,42.835,-75.98639
West Mountain Ski Area,Both,NEW YORK,43.30944,-73.81583,43.30944,-73.81583
White Face Mountain Ski Area,Both,NEW YORK,44.38833,-73.81583,44.38833,-73.81583
Willard Mountain Ski Area,Both,NEW YORK,43.02,-73.52361,43.02,-73.52361
Windham Ski Area,Both,NEW YORK,42.29167,-74.25972,42.29167,-74.25972
Woods Valley Ski Area,Both,NEW YORK,43.30556,-75.38333,43.30556,-75.38333
Alpine Valley Ski Area,Both,OHIO,41.24111,-81.55278,41.24111,-81.55278
Boston Mills Ski Area,Both,OHIO,41.27611,-81.53833,41.27611,-81.53833
Clear Fork Ski Resort,Both,OHIO,40.58833,-82.425,40.58833,-82.425
Mad River Mountain Ski Area,Both,OHIO,40.36111,-83.75972,40.36111,-83.75972
Snowtrails Ski Area,Both,OHIO,40.75833,-82.51556,40.75833,-82.51556
Spicy Run Ski Area,Both,OHIO,39.09889,-83.24667,39.09889,-83.24667
Valley Hi Ski Area,Both,OHIO,40.31333,-83.675,40.31333,-83.675
Alpine Ski Trail,Alpine,OREGON,45.31889,-121.73139,45.31889,-121.73139
Anthony Lakes Ski Area,Both,OREGON,44.96403,-118.23521,44.96403,-118.23521
Arbuckle Ski Area,Both,OREGON,45.19596,-119.24275,45.19596,-119.24275
Cooper Spur Ski Area,Both,OREGON,45.4126,-121.60559,45.4126,-121.60559
Cooper Spur Ski Trail,Alpine,OREGON,45.40472,-121.63083,45.40472,-121.63083
Elk Lake Resort,Both,OREGON,43.97889,-121.80806,43.97889,-121.80806
Glade Ski Trail,Alpine,OREGON,45.32083,-121.735,45.32083,-121.735
Hoodoo Ski Area,Both,OREGON,44.40917,-121.87333,44.40917,-121.87333
Mount Ashland Ski Area,Both,OREGON,42.08317,-122.70945,42.08317,-122.70945
Mount Hood Meadow Ski Area,Both,OREGON,45.33121,-121.66365,45.33121,-121.66365
Mt. Bachelor Ski Area,Both,OREGON,43.99528,-121.68028,43.99528,-121.68028
Mt. Bailey Snowcat Skiing,Both,OREGON,43.15528,-122.21944,43.15528,-122.21944
Mt. Hood Skibowl,Both,OREGON,45.29472,-121.76861,45.29472,-121.76861
Shelter Cove Resort - Odell Lake,Both,OREGON,43.54917,-121.96361,43.54917,-121.96361
Spout Springs Ski Area,Both,OREGON,45.75403,-118.05161,45.75403,-118.05161
Summit Ski Area,Both,OREGON,45.30417,-121.75361,45.30417,-121.75361
Summit Sno-Park,Both,OREGON,42.39639,-122.28389,42.39639,-122.28389
Sunriver Resort,Both,OREGON,43.88417,-121.4375,43.88417,-121.4375
Timberline Ski Area,Both,OREGON,45.40306,-121.72833,45.40306,-121.72833
Warner Canyon Ski Area,Both,OREGON,42.23736,-120.29689,42.23736,-120.29689
Willamette Pass Ski Area,Both,OREGON,43.60177,-122.03169,43.60177,-122.03169
Alpine Mountain Ski Area,Both,PENNSYLVANIA,41.11083,-75.23,41.11083,-75.23
Apple Hill Ski Resort,Both,PENNSYLVANIA,40.63139,-75.60861,40.63139,-75.60861
Bear Creek Ski Area,Both,PENNSYLVANIA,40.51583,-75.55556,40.51583,-75.55556
Big Boulder Ski Resort,Both,PENNSYLVANIA,41.05,-75.60056,41.05,-75.60056
Blue Knob Ski Area,Both,PENNSYLVANIA,40.28833,-78.56194,40.28833,-78.56194
Blue Mountain Ski Area,Both,PENNSYLVANIA,40.80139,-75.61056,40.80139,-75.61056
Boyce Park Ski Area,Both,PENNSYLVANIA,40.46778,-79.74944,40.46778,-79.74944
Camelback Ski Area,Both,PENNSYLVANIA,41.04778,-75.35556,41.04778,-75.35556
Canadohta Ski Slope,Both,PENNSYLVANIA,41.83222,-79.85833,41.83222,-79.85833
Chadds Peak Camp and Ski School,Both,PENNSYLVANIA,39.87139,-75.62167,39.87139,-75.62167
Crystal Lake Ski Area,Both,PENNSYLVANIA,41.24111,-76.72417,41.24111,-76.72417
Denton Hill Ski Area,Both,PENNSYLVANIA,41.77222,-77.83194,41.77222,-77.83194
Doe Mountain Ski Area,Both,PENNSYLVANIA,40.47528,-75.62889,40.47528,-75.62889
Eagle Rock Ski Area,Both,PENNSYLVANIA,40.95833,-75.975,40.95833,-75.975
Elk Mountain Ski Center,Both,PENNSYLVANIA,41.72,-75.5575,41.72,-75.5575
Fernwood Ski Area (historical),Both,PENNSYLVANIA,41.07972,-75.01667,41.07972,-75.01667
Glade Knob Ski Slope,Both,PENNSYLVANIA,39.76139,-79.24083,39.76139,-79.24083
Hidden Valley Ski Area,Both,PENNSYLVANIA,40.05806,-79.2575,40.05806,-79.2575
Jack Frost Mountain Ski Area,Both,PENNSYLVANIA,41.10778,-75.65361,41.10778,-75.65361
Laurel Mountain Ski Resort,Both,PENNSYLVANIA,40.15639,-79.16806,40.15639,-79.16806
Little Gap Ski Area,Both,PENNSYLVANIA,40.81,-75.52,40.81,-75.52
Masthope Ski Area,Both,PENNSYLVANIA,41.51417,-75.03139,41.51417,-75.03139
Montage Ski Area,Both,PENNSYLVANIA,41.35833,-75.67056,41.35833,-75.67056
Mount Airy Lodge Ski Area,Both,PENNSYLVANIA,41.10667,-75.32333,41.10667,-75.32333
Mount Pleasant Ski Resort,Both,PENNSYLVANIA,41.85222,-80.07417,41.85222,-80.07417
Mount Tone Ski Area,Both,PENNSYLVANIA,41.84583,-75.30333,41.84583,-75.30333
Mt. View Ski Area,Both,PENNSYLVANIA,41.87417,-80.13194,41.87417,-80.13194
Mystic Mountain Ski Area,Both,PENNSYLVANIA,39.87833,-79.925,39.87833,-79.925
Plateau De Mount Ski Area,Both,PENNSYLVANIA,40.07222,-79.22861,40.07222,-79.22861
Pocono Manor Ski Area,Both,PENNSYLVANIA,41.0975,-75.35667,41.0975,-75.35667
Richmond Hill Ski Area,Both,PENNSYLVANIA,39.95778,-77.91389,39.95778,-77.91389
Saw Creek Ski Area,Both,PENNSYLVANIA,41.12083,-75.045,41.12083,-75.045
Seven Springs Ski Area,Both,PENNSYLVANIA,40.02306,-79.2975,40.02306,-79.2975
Shawnee Mountain Ski Area,Both,PENNSYLVANIA,41.03806,-75.07861,41.03806,-75.07861
Ski Big Bear Ski Area,Both,PENNSYLVANIA,41.48194,-74.98639,41.48194,-74.98639
Ski Liberty Ski Area,Both,PENNSYLVANIA,39.75972,-77.37111,39.75972,-77.37111
Ski Roundtop Ski Area,Both,PENNSYLVANIA,40.10667,-76.92667,40.10667,-76.92667
Ski Sawmill Ski Area,Both,PENNSYLVANIA,41.52389,-77.29111,41.52389,-77.29111
Ski Snowpeak,Both,PENNSYLVANIA,40.545,-77.24667,40.545,-77.24667
Snozone Ski Area,Both,PENNSYLVANIA,40.25222,-80.00306,40.25222,-80.00306
Split Rock Ski Area,Both,PENNSYLVANIA,41.06167,-75.62083,41.06167,-75.62083
Tamiment Ski Area,Both,PENNSYLVANIA,41.13417,-75.015,41.13417,-75.015
Tanglewood Ski Area,Both,PENNSYLVANIA,41.41306,-75.16472,41.41306,-75.16472
Tussey Mountain Ski Resort,Both,PENNSYLVANIA,40.76917,-77.75361,40.76917,-77.75361
White Mountain Ski Area,Both,PENNSYLVANIA,40.01444,-79.3325,40.01444,-79.3325
Whitetail Ski Area,Both,PENNSYLVANIA,39.82778,-77.90361,39.82778,-77.90361
Willowbrook Ski Area,Both,PENNSYLVANIA,40.125,-79.86667,40.125,-79.86667
Yawgoo Ski Area,Both,RHODE ISLAND,41.53556,-71.55444,41.53556,-71.55444
Deer Mountain Ski Area,Both,SOUTH DAKOTA,44.30167,-103.825,44.30167,-103.825
Big Hill Ski Trail,Alpine,SOUTH DAKOTA,44.40889,-103.93333,44.40889,-103.93333
Great Bear Ski Area,Both,SOUTH DAKOTA,43.55,-96.7,43.55,-96.7
Terry Peak Ski Area,Both,SOUTH DAKOTA,44.3275,-103.83472,44.3275,-103.83472
Ober Gatlinburg Ski Area,Both,TENNESSEE,35.71417,-83.51028,35.71417,-83.51028
Alta Ski Area,Both,UTAH,40.57967,-111.63828,40.57967,-111.63828
Beaver Mountain Ski Area,Both,UTAH,41.96826,-111.54162,41.96826,-111.54162
Blue Mountain Ski Area,Both,UTAH,37.86056,-109.4368,37.86056,-109.4368
Brian Head Ski Area,Both,UTAH,37.69192,-112.838,37.69192,-112.838
Brighton Ski Area,Both,UTAH,40.59995,-111.58356,40.59995,-111.58356
Brighton Ski Area Heliport,Alpine,UTAH,40.60134,-111.58328,40.60134,-111.58328
Cedar Canyon Ski Area,Both,UTAH,37.5972,-112.93272,37.5972,-112.93272
Deer Valley Ski Area,Both,UTAH,40.63551,-111.4805,40.63551,-111.4805
Elk Meadows Ski Area,Both,UTAH,38.32386,-112.37134,38.32386,-112.37134
Mount Holly Ski Area,Both,UTAH,38.32053,-112.38411,38.32053,-112.38411
Nordic Valley Ski Area,Both,UTAH,41.30494,-111.87247,41.30494,-111.87247
Park City Ski Area,Both,UTAH,40.64356,-111.50495,40.64356,-111.50495
Park City West Ski Area,Both,UTAH,40.68995,-111.57495,40.68995,-111.57495
Powder Mountain Ski Area,Both,UTAH,41.37772,-111.7719,41.37772,-111.7719
Snowland Ski Area,Both,UTAH,39.65607,-111.33687,39.65607,-111.33687
Solitude Ski Area,Both,UTAH,40.62551,-111.59522,40.62551,-111.59522
Sundance Ski Area,Both,UTAH,40.38578,-111.58161,40.38578,-111.58161
Snow Basin Ski Area,Both,UTAH,41.21188,-111.8519,41.21188,-111.8519
Big Bromley Ski Area,Both,VERMONT,43.22056,-72.94028,43.22056,-72.94028
Blueberry Lake Ski Touring Center,Alpine,VERMONT,44.08528,-72.82722,44.08528,-72.82722
Bolton Valley Ski Area,Both,VERMONT,44.41583,-72.87028,44.41583,-72.87028
Burke Mountain Ski Area,Both,VERMONT,44.58333,-71.90194,44.58333,-71.90194
Burke Mountain Ski Touring Center,Alpine,VERMONT,44.59861,-71.90361,44.59861,-71.90361
Camels Hump Nordic Ski Center,Alpine,VERMONT,44.33222,-72.94389,44.33222,-72.94389
Carinthia Ski Area,Both,VERMONT,42.95722,-72.89778,42.95722,-72.89778
Catamount Family Ski Area,Both,VERMONT,44.45778,-73.0533,44.45778,-73.0533
Chittenden Brook Cross-Country Ski T,Alpine,VERMONT,43.82722,-72.91278,43.82722,-72.91278
Churchhill House Ski Area,Both,VERMONT,43.83167,-73.0525,43.83167,-73.0525
Cochran Ski Center,Both,VERMONT,44.39583,-72.9825,44.39583,-72.9825
Edson Hill Cross Country Ski Center,Alpine,VERMONT,44.51111,-72.72639,44.51111,-72.72639
Fox Run Cross Country Ski Center,Alpine,VERMONT,43.4175,-72.70056,43.4175,-72.70056
Glen Ellen Ski Area,Both,VERMONT,44.17361,-72.90667,44.17361,-72.90667
Grafton Cross Country Ski Center,Alpine,VERMONT,43.15111,-72.62306,43.15111,-72.62306
Haystack Mountain Ski Area,Both,VERMONT,42.92361,-72.90639,42.92361,-72.90639
Hazens Notch Ski Touring Center,Alpine,VERMONT,44.87694,-72.58722,44.87694,-72.58722
Hildene Ski Touring Center,Alpine,VERMONT,43.14694,-73.08861,43.14694,-73.08861
Hogback Ski Area,Both,VERMONT,42.84917,-72.79389,42.84917,-72.79389
Jay Peak Ski Area,Both,VERMONT,44.92444,-72.52611,44.92444,-72.52611
Killington Ski Area,Both,VERMONT,43.62,-72.80694,43.62,-72.80694
Living Memorial Park Ski Area,Both,VERMONT,43.62,-72.80694,43.62,-72.80694
Lyndon Outing Club Ski Area,Both,VERMONT,44.51694,-71.97472,44.51694,-71.97472
Mad River Glen Ski Area,Both,VERMONT,44.20083,-72.925,44.20083,-72.925
Majic Mountain Ski Center,Both,VERMONT,43.20194,-72.77306,43.20194,-72.77306
Maple Valley Ski Center,Both,VERMONT,42.9425,-72.6275,42.9425,-72.6275
Middlebury College Ski Area,Both,VERMONT,44.01194,-73.18306,44.01194,-73.18306
Mount Ascuteney Ski Area,Both,VERMONT,43.46333,-72.46667,43.46333,-72.46667
Mount Mansfield Ski Area,Both,VERMONT,44.5275,-72.79583,44.5275,-72.79583
Mount Snow Ski Area,Both,VERMONT,42.96389,-72.90639,42.96389,-72.90639
Mountain Meadows Ski Touring Center,Alpine,VERMONT,43.66806,-72.8,43.66806,-72.8
Nordio Cross Country Ski Area,Alpine,VERMONT,43.23222,-72.85417,43.23222,-72.85417
Norwich University Ski Area,Both,VERMONT,44.13889,-72.64278,44.13889,-72.64278
Okemo Mountain Ski Area,Both,VERMONT,43.40444,-72.73278,43.40444,-72.73278
Oles Cross Country Ski Center,Alpine,VERMONT,44.11111,-72.82306,44.11111,-72.82306
Pico Peak Ski Area,Both,VERMONT,43.66167,-72.84306,43.66167,-72.84306
Prospect Mountain Ski Center,Both,VERMONT,42.87528,-73.07583,42.87528,-73.07583
Rikert Ski Touring Center,Alpine,VERMONT,43.9375,-72.95444,43.9375,-72.95444
Round Top Mountain Ski Area,Both,VERMONT,43.53389,-72.74917,43.53389,-72.74917
Sherman Hollow Ski Touring Center,Alpine,VERMONT,44.35667,-73.02528,44.35667,-73.02528
Sitzmark Cross Country Ski Center,Alpine,VERMONT,42.92167,-72.83778,42.92167,-72.83778
Smuggler's Notch Ski Area,Both,VERMONT,44.55528,-72.79611,44.55528,-72.79611
Snow Valley Ski Area,Both,VERMONT,43.19444,-72.97611,43.19444,-72.97611
Sonneberg Ski Area,Both,VERMONT,43.72444,-72.58889,43.72444,-72.58889
Spruce Peak Ski Area,Both,VERMONT,44.54167,-72.77944,44.54167,-72.77944
Stowe Ski Area,Both,VERMONT,44.42972,-72.65056,44.42972,-72.65056
Stratton Mountain Ski Center,Both,VERMONT,43.12806,-72.90944,43.12806,-72.90944
Sugarbush Valley Ski Area,Both,VERMONT,44.13722,-72.90722,44.13722,-72.90722
Suicide Six Ski Area,Both,VERMONT,43.66472,-72.54444,43.66472,-72.54444
Tater Hill Ski Center,Both,VERMONT,43.22194,-72.71833,43.22194,-72.71833
The White Horse Ski Touring Center,Alpine,VERMONT,42.87333,-72.85222,42.87333,-72.85222
Timber Creek Ski Resort,Both,VERMONT,42.96528,-72.8875,42.96528,-72.8875
Topnotch Ski Touring Center,Alpine,VERMONT,44.49806,-72.74417,44.49806,-72.74417
Trail Head Ski Touring Center,Alpine,VERMONT,43.77806,-72.79806,43.77806,-72.79806
Trapp Family Lodge and Cross Country,Alpine,VERMONT,44.465,-72.74528,44.465,-72.74528
Tucker Hill Ski Center,Both,VERMONT,44.18194,-72.86889,44.18194,-72.86889
Twin Farms Ski Area,Both,VERMONT,43.72861,-72.61944,43.72861,-72.61944
Viking Cross Country Ski Area,Alpine,VERMONT,43.22417,-72.79556,43.22417,-72.79556
Wild Wings Ski Touring Center,Alpine,VERMONT,43.25972,-72.90833,43.25972,-72.90833
Wolf Run Cross Country Ski Center,Alpine,VERMONT,44.82722,-72.77722,44.82722,-72.77722
Woodstock Ski Touring Center,Alpine,VERMONT,43.61472,-72.51583,43.61472,-72.51583
Bryce Ski Area,Both,VIRGINIA,38.80639,-78.7725,38.80639,-78.7725
Massanutten Ski Area,Both,VIRGINIA,38.40917,-78.75417,38.40917,-78.75417
The Homestead Ski Area,Both,VIRGINIA,38.15722,-78.57778,38.15722,-78.57778
Wintergreen Ski Area,Both,VIRGINIA,37.88472,-78.89972,37.88472,-78.89972
Alpental Ski Area,Both,WASHINGTON,47.44315,-121.42952,47.44315,-121.42952
Bluewood Ski Area,Both,WASHINGTON,46.08625,-117.85494,46.08625,-117.85494
Brooks Memorial State Park Ski Area,Both,WASHINGTON,45.98622,-120.67364,45.98622,-120.67364
Echo Valley Ski Area,Both,WASHINGTON,47.93594,-120.05616,47.93594,-120.05616
Entiat Valley Ski Area,Both,WASHINGTON,47.8565,-120.41506,47.8565,-120.41506
Forty Nine Degrees North Ski Area,Both,WASHINGTON,48.29403,-117.57109,48.29403,-117.57109
Loup Loup Ski Area,Both,WASHINGTON,48.39095,-119.91784,48.39095,-119.91784
Pacific West Ski Area,Both,WASHINGTON,47.38815,-121.3998,47.38815,-121.3998
Ski Acres Ski Area,Both,WASHINGTON,47.40676,-121.41369,47.40676,-121.41369
Snoqualmie Summit Ski Area,Both,WASHINGTON,47.42482,-121.41841,47.42482,-121.41841
White Pass Ski Area,Both,WASHINGTON,46.63538,-121.38756,46.63538,-121.38756
White Pass X Country Ski Area,Cross-Country,WASHINGTON,46.63538,-121.40395,46.63538,-121.40395
Alpine Lake Resort,Both,WEST VIRGINIA,39.47472,-79.50083,39.47472,-79.50083
Canaan Valley Ski Area,Both,WEST VIRGINIA,39.13472,-79.40472,39.13472,-79.40472
Snowshoe Mountain Ski Area,Both,WEST VIRGINIA,38.41389,-79.99694,38.41389,-79.99694
Timberline Ski Area,Both,WEST VIRGINIA,39.13472,-79.40472,39.13472,-79.40472
Winterplace Ski Area,Both,WEST VIRGINIA,37.59056,-81.115,37.59056,-81.115
Alpine Valley Ski Area,Both,WISCONSIN,42.78917,-88.39944,42.78917,-88.39944
Ausblick Ski Area,Both,WISCONSIN,43.13583,-88.21806,43.13583,-88.21806
Birch Park Ski Area,Both,WISCONSIN,45.05333,-92.74861,45.05333,-92.74861
Bruce Mound Winter Sports Area,Both,WISCONSIN,44.44389,-90.79222,44.44389,-90.79222
Calumet Ski Area,Both,WISCONSIN,44.14028,-88.16389,44.14028,-88.16389
Cascade Mountain Ski Area,Both,WISCONSIN,43.49306,-89.51861,43.49306,-89.51861
Christie Mountain Ski Area,Both,WISCONSIN,45.47639,-91.45167,45.47639,-91.45167
Christmas Mountain Ski Area,Both,WISCONSIN,43.6275,-89.77083,43.6275,-89.77083
Crystal Ridge Ski Area,Both,WISCONSIN,42.88639,-88.00972,42.88639,-88.00972
Devil's Head Ski Area,Both,WISCONSIN,43.42167,-89.62778,43.42167,-89.62778
Giant Pine Ski and Hike Trail,Alpine,WISCONSIN,45.78722,-88.98722,45.78722,-88.98722
Granite Peak Ski Area,Both,WISCONSIN,44.95917,-89.63,44.95917,-89.63
Hidden Valley Ski Area,Both,WISCONSIN,44.27639,-87.80722,44.27639,-87.80722
Lake Geneva Ski Area,Both,WISCONSIN,42.58861,-88.42972,42.58861,-88.42972
Little Switzerland Ski Area,Both,WISCONSIN,43.33361,-88.28611,43.33361,-88.28611
Minocqua Winter Park,Both,WISCONSIN,45.87139,-89.71083,45.87139,-89.71083
Mount Valhalla Ski Area,Both,WISCONSIN,46.71889,-91.0475,46.71889,-91.0475
Mt. La Crosse Ski Area,Both,WISCONSIN,43.80139,-91.23944,43.80139,-91.23944
Newman Springs Ski Trail,Alpine,WISCONSIN,45.94694,-90.1958,45.94694,-90.1958
Nordic Mountain Ski Area,Both,WISCONSIN,44.11806,-89.18444,44.11806,-89.18444
Paul Bunyon Ski Area,Both,WISCONSIN,45.32389,-88.52417,45.32389,-88.52417
Rib Mountain Ski Area,Both,WISCONSIN,44.92472,-89.68417,44.92472,-89.68417
Silver Mine Hill Ski Jump,Both,WISCONSIN,44.77389,-91.58472,44.77389,-91.58472
Ski Hill Winter Sports Area,Both,WISCONSIN,46.13556,-89.19917,46.13556,-89.19917
Sky Line Ski Area,Both,WISCONSIN,43.97056,-89.81667,43.97056,-89.81667
Snow Crest Ski Area,Both,WISCONSIN,45.095,-92.73417,45.095,-92.73417
Standing Rocks Ski Area,Both,WISCONSIN,44.52361,-89.57444,44.52361,-89.57444
Sunburst Ski Area,Both,WISCONSIN,43.17778,-89.29028,43.17778,-89.29028
Telemark Resort,Both,WISCONSIN,46.18472,-91.25028,46.18472,-91.25028
Trollhaugen Ski Area,Both,WISCONSIN,45.35611,-92.63333,45.35611,-92.63333
Tyrol Basin Ski Area,Both,WISCONSIN,43.00917,-89.73361,43.00917,-89.73361
Whitecap Mountain Ski Area,Both,WISCONSIN,46.42806,-90.24583,46.42806,-90.24583
Wilmot Mountain Ski Area,Both,WISCONSIN,42.51278,-88.18194,42.51278,-88.18194
Wintergreen Downhill Ski Area,Both,WISCONSIN,43.14444,-90.08139,43.14444,-90.08139
Bighorn Ski Area,Both,WYOMING,44.60938,-107.51487,44.60938,-107.51487
Elkhart Loop Ski Trail,Alpine,WYOMING,42.99028,-109.73333,42.99028,-109.73333
Grouse Mountain Ski Trail,Alpine,WYOMING,42.94306,-109.71139,42.94306,-109.71139
Hogadon Basin Ski Area,Both,WYOMING,42.74552,-106.3387,42.74552,-106.3387
Jackson Hole Ski Area,Both,WYOMING,43.59659,-110.84746,43.59659,-110.84746
Meadowlark Ski Area,Both,WYOMING,44.1605,-107.21818,44.1605,-107.21818
Medicine Bow Ski Area,Both,WYOMING,41.33719,-106.18895,41.33719,-106.18895
Park Loop Ski Trail,Alpine,WYOMING,42.94917,-109.74972,42.94917,-109.74972
White Pine Lodge Ski Area,Both,WYOMING,42.97772,-109.75742,42.97772,-109.75742